NORAD_CAT_ID,OBJECT_NAME,OBJECT_TYPE,EPOCH,MEAN_MOTION,ECCENTRICITY,INCLINATION,RA_OF_ASC_NODE,ARG_OF_PERICENTER,MEAN_ANOMALY,BSTAR,MEAN_MOTION_DOT,MEAN_MOTION_DDOT,TLE_LINE0,TLE_LINE1,TLE_LINE2,SEMIMAJOR_AXIS,PERIOD,APOGEE,PERIGEE,DECAYED
51887.0,STARLINK-3551,PAYLOAD,2024-01-13 03:47:30,15.08849647,0.0001159,53.2159,290.002,87.741,272.3715,0.00027161,4.039e-05,0.0,0 STARLINK-3551,1 51887U 22022AM  24013.15799449  .00004039  00000-0  27161-3 0  9991,2 51887  53.2159 290.0020 0001159  87.7410 272.3715 15.08849647104501,6917.851,95.437,540.518,538.914,0.0
51887.0,STARLINK-3551,PAYLOAD,2024-01-13 13:19:50,15.08839895,0.0001291,53.2146,288.2153,87.0251,273.0888,0.00010328,1.356e-05,0.0,0 STARLINK-3551,1 51887U 22022AM  24013.55543990  .00001356  00000-0  10328-3 0  9999,2 51887  53.2146 288.2153 0001291  87.0251 273.0888 15.08839895104565,6917.881,95.438,540.639,538.853,0.0
51887.0,STARLINK-3551,PAYLOAD,2024-01-14 03:38:17,15.0885305,0.0001328,53.216,285.5385,118.1172,241.9955,0.00032795,4.937e-05,0.0,0 STARLINK-3551,1 51887U 22022AM  24014.15159403  .00004937  00000-0  32795-3 0  9998,2 51887  53.2160 285.5385 0001328 118.1172 241.9955 15.08853050104655,6917.841,95.437,540.624,538.787,0.0
51887.0,STARLINK-3551,PAYLOAD,2024-01-14 13:10:36,15.088428,0.000142,53.2155,283.7572,97.5618,262.5535,0.00015372,2.16e-05,0.0,0 STARLINK-3551,1 51887U 22022AM  24014.54903928  .00002160  00000-0  15372-3 0  9998,2 51887  53.2155 283.7572 0001420  97.5618 262.5535 15.08842800104716,6917.872,95.437,540.719,538.754,0.0
51887.0,STARLINK-3551,PAYLOAD,2024-01-14 22:42:55,15.08845622,0.0001667,53.2152,281.9691,125.8293,234.2854,0.00019631,2.838e-05,0.0,0 STARLINK-3551,1 51887U 22022AM  24014.94647623  .00002838  00000-0  19631-3 0  9993,2 51887  53.2152 281.9691 0001667 125.8293 234.2854 15.08845622104773,6917.863,95.437,540.881,538.575,0.0
51887.0,STARLINK-3551,PAYLOAD,2024-01-15 03:29:04,15.08858887,0.0001406,53.2154,281.0786,109.2562,250.8582,0.00039215,5.962e-05,0.0,0 STARLINK-3551,1 51887U 22022AM  24015.14519130  .00005962  00000-0  39215-3 0  9998,2 51887  53.2154 281.0786 0001406 109.2562 250.8582 15.08858887104800,6917.823,95.436,540.66,538.715,0.0
51887.0,STARLINK-3551,PAYLOAD,2024-01-15 13:01:23,15.08839486,0.0001241,53.2152,279.2922,126.5261,233.5845,7.0897e-05,8.41e-06,0.0,0 STARLINK-3551,1 51887U 22022AM  24015.54263693  .00000841  00000-0  70897-4 0  9995,2 51887  53.2152 279.2922 0001241 126.5261 233.5845 15.08839486104864,6917.882,95.438,540.605,538.888,0.0
51887.0,STARLINK-3551,PAYLOAD,2024-01-15 20:58:19,15.08839963,0.0002048,53.2168,277.8039,156.4367,203.6719,3.6043e-05,2.85e-06,0.0,0 STARLINK-3551,1 51887U 22022AM  24015.87383421  .00000285  00000-0  36043-4 0  9990,2 51887  53.2168 277.8039 0002048 156.4367 203.6719 15.08839963104913,6917.881,95.438,541.162,538.329,0.0
51887.0,STARLINK-3551,PAYLOAD,2024-01-16 12:52:10,15.08839122,0.0001736,53.2151,274.8322,128.4986,231.6162,6.0794e-05,6.8e-06,0.0,0 STARLINK-3551,1 51887U 22022AM  24016.53623739  .00000680  00000-0  60794-4 0  9992,2 51887  53.2151 274.8322 0001736 128.4986 231.6162 15.08839122105018,6917.883,95.438,540.949,538.547,0.0
51887.0,STARLINK-3551,PAYLOAD,2024-01-16 22:24:29,15.08838614,0.0001537,53.2152,273.049,117.8743,242.2405,6.1894e-05,6.97e-06,0.0,0 STARLINK-3551,1 51887U 22022AM  24016.93367942  .00000697  00000-0  61894-4 0  9997,2 51887  53.2152 273.0490 0001537 117.8743 242.2405 15.08838614105077,6917.885,95.438,540.813,538.686,0.0
51887.0,STARLINK-3551,PAYLOAD,2024-01-16 23:59:53,15.08841913,0.0001345,53.2154,272.7543,96.3214,263.7932,0.00010845,1.439e-05,0.0,0 STARLINK-3551,1 51887U 22022AM  24016.99991899  .00001439  00000-0  10845-3 0  9991,2 51887  53.2154 272.7543 0001345  96.3214 263.7932 15.08841913105085,6917.875,95.437,540.67,538.809,0.0
51887.0,STARLINK-3551,PAYLOAD,2024-01-17 12:43:00,15.08809781,0.0001312,53.2151,270.3735,99.559,260.555,-0.00018733,-3.265e-05,0.0,0 STARLINK-3551,1 51887U 22022AM  24017.52986156 -.00003265  00000-0 -18733-3 0  9996,2 51887  53.2151 270.3735 0001312  99.5590 260.5550 15.08809781105162,6917.973,95.439,540.745,538.93,0.0
51887.0,STARLINK-3551,PAYLOAD,2024-01-17 20:39:56,15.08807282,0.000148,53.2152,268.8873,101.7903,258.3255,-0.00016695,-2.942e-05,0.0,0 STARLINK-3551,1 51887U 22022AM  24017.86106917 -.00002942  00000-0 -16695-3 0  9998,2 51887  53.2152 268.8873 0001480 101.7903 258.3255 15.08807282105215,6917.98,95.44,540.869,538.822,0.0
51887.0,STARLINK-3551,PAYLOAD,2024-01-17 22:15:19,15.08808829,0.000147,53.2151,268.59,100.4588,259.6569,-0.00013526,-2.438e-05,0.0,0 STARLINK-3551,1 51887U 22022AM  24017.92730977 -.00002438  00000-0 -13526-3 0  9994,2 51887  53.2151 268.5900 0001470 100.4588 259.6569 15.08808829105227,6917.976,95.44,540.858,538.824,0.0
51887.0,STARLINK-3551,PAYLOAD,2024-01-18 10:58:23,15.08836845,0.0001357,53.2158,266.2139,82.3657,277.749,0.00031527,4.733e-05,0.0,0 STARLINK-3551,1 51887U 22022AM  24018.45722107  .00004733  00000-0  31527-3 0  9998,2 51887  53.2158 266.2139 0001357  82.3657 277.7490 15.08836845105304,6917.89,95.438,540.694,538.816,0.0
51887.0,STARLINK-3551,PAYLOAD,2024-01-18 18:55:19,15.0885199,0.0001664,53.2147,264.7266,78.7778,281.3402,0.00062093,9.611e-05,0.0,0 STARLINK-3551,1 51887U 22022AM  24018.78841760  .00009611  00000-0  62093-3 0  9993,2 51887  53.2147 264.7266 0001664  78.7778 281.3402 15.08851990105357,6917.844,95.437,540.86,538.558,0.0
51887.0,STARLINK-3551,PAYLOAD,2024-01-18 22:06:05,15.08864395,0.0001407,53.215,264.1311,84.9673,275.148,0.0010657,0.00016725,0.0,0 STARLINK-3551,1 51887U 22022AM  24018.92089524  .00016725  00000-0  10657-2 0  9993,2 51887  53.2150 264.1311 0001407  84.9673 275.1480 15.08864395105376,6917.806,95.436,540.644,538.697,0.0
51887.0,STARLINK-3551,PAYLOAD,2024-01-18 23:41:28,15.08873466,0.0001421,53.2149,263.8336,104.1856,255.9294,0.0016625,0.00026294,0.0,0 STARLINK-3551,1 51887U 22022AM  24018.98713571  .00026294  00000-0  16625-2 0  9998,2 51887  53.2149 263.8336 0001421 104.1856 255.9294 15.08873466105380,6917.778,95.435,540.626,538.66,0.0
51887.0,STARLINK-3551,PAYLOAD,2024-01-19 10:49:09,15.08872633,0.0001916,53.2156,261.7605,59.9592,300.159,0.00053724,8.28e-05,0.0,0 STARLINK-3551,1 51887U 22022AM  24019.45080856  .00008280  00000-0  53724-3 0  9991,2 51887  53.2156 261.7605 0001916  59.9592 300.1590 15.08872633105452,6917.781,95.435,540.971,538.32,0.0
51887.0,STARLINK-3551,PAYLOAD,2024-01-19 17:10:42,15.08853639,0.0001045,53.2145,260.5625,80.424,279.6871,-0.00011937,-2.188e-05,0.0,0 STARLINK-3551,1 51887U 22022AM  24019.71576589 -.00002188  00000-0 -11937-3 0  9996,2 51887  53.2145 260.5625 0001045  80.4240 279.6871 15.08853639105492,6917.839,95.437,540.427,538.981,0.0
51887.0,STARLINK-3551,PAYLOAD,2024-01-19 21:56:51,15.08860748,0.0001197,53.2145,259.6694,104.6127,255.4997,0.00011775,1.588e-05,0.0,0 STARLINK-3551,1 51887U 22022AM  24019.91448156  .00001588  00000-0  11775-3 0  9997,2 51887  53.2145 259.6694 0001197 104.6127 255.4997 15.08860748105522,6917.817,95.436,540.51,538.854,0.0
51887.0,STARLINK-3551,PAYLOAD,2024-01-19 23:32:14,15.08863918,0.0001154,53.2145,259.3723,100.7463,259.3659,0.0003246,4.885e-05,0.0,0 STARLINK-3551,1 51887U 22022AM  24019.98072065  .00004885  00000-0  32460-3 0  9993,2 51887  53.2145 259.3723 0001154 100.7463 259.3659 15.08863918105536,6917.807,95.436,540.471,538.874,0.0
51887.0,STARLINK-3551,PAYLOAD,2024-01-20 10:39:56,15.08849825,0.0001313,53.2145,257.2914,100.8295,259.2844,0.00043307,6.613e-05,0.0,0 STARLINK-3551,1 51887U 22022AM  24020.44440357  .00006613  00000-0  43307-3 0  9992,2 51887  53.2145 257.2914 0001313 100.8295 259.2844 15.08849825105600,6917.85,95.437,540.624,538.807,0.0
51887.0,STARLINK-3551,PAYLOAD,2024-01-20 15:26:06,15.08846678,0.0001655,53.2153,256.4058,70.1543,289.9628,0.00036132,5.468e-05,0.0,0 STARLINK-3551,1 51887U 22022AM  24020.64312637  .00005468  00000-0  36132-3 0  9998,2 51887  53.2153 256.4058 0001655  70.1543 289.9628 15.08846678105639,6917.86,95.437,540.87,538.58,0.0
51887.0,STARLINK-3551,PAYLOAD,2024-01-20 20:12:15,15.08831191,0.0001272,53.2144,255.5078,28.6863,331.4199,7.3552e-05,8.83e-06,0.0,0 STARLINK-3551,1 51887U 22022AM  24020.84185101  .00000883  00000-0  73552-4 0  9998,2 51887  53.2144 255.5078 0001272  28.6863 331.4199 15.08831191105662,6917.907,95.438,540.652,538.892,0.0
51887.0,STARLINK-3551,PAYLOAD,2024-01-20 21:47:38,15.08833643,0.0001223,53.2144,255.2094,97.5856,262.5275,-5.0722e-05,-1.095e-05,0.0,0 STARLINK-3551,1 51887U 22022AM  24020.90808876 -.00001095  00000-0 -50722-4 0  9998,2 51887  53.2144 255.2094 0001223  97.5856 262.5275 15.08833643105674,6917.9,95.438,540.611,538.919,0.0
51887.0,STARLINK-3551,PAYLOAD,2024-01-21 20:03:02,15.08851545,0.0001169,53.2145,251.0457,88.7825,271.3301,0.00069059,0.00010723,0.0,0 STARLINK-3551,1 51887U 22022AM  24021.83544803  .00010723  00000-0  69059-3 0  9996,2 51887  53.2145 251.0457 0001169  88.7825 271.3301 15.08851545105814,6917.845,95.437,540.519,538.901,0.0
51887.0,STARLINK-3551,PAYLOAD,2024-01-21 21:38:25,15.0885328,0.0001162,53.2145,250.7485,85.0561,275.0564,0.0007378,0.00011478,0.0,0 STARLINK-3551,1 51887U 22022AM  24021.90168767  .00011478  00000-0  73780-3 0  9999,2 51887  53.2145 250.7485 0001162  85.0561 275.0564 15.08853280105822,6917.84,95.437,540.509,538.901,0.0
51887.0,STARLINK-3551,PAYLOAD,2024-01-22 00:49:11,15.08858792,0.0001202,53.2144,250.1541,79.2946,280.8181,0.00085461,0.00013346,0.0,0 STARLINK-3551,1 51887U 22022AM  24022.03416625  .00013346  00000-0  85461-3 0  9998,2 51887  53.2144 250.1541 0001202  79.2946 280.8181 15.08858792105849,6917.823,95.436,540.519,538.856,0.0
51887.0,STARLINK-3551,PAYLOAD,2024-01-22 10:21:30,15.08842492,0.0001185,53.2145,248.3659,126.5635,233.5467,0.00018498,2.658e-05,0.0,0 STARLINK-3551,1 51887U 22022AM  24022.43160504  .00002658  00000-0  18498-3 0  9994,2 51887  53.2145 248.3659 0001185 126.5635 233.5467 15.08842492105909,6917.873,95.437,540.558,538.918,0.0
